[{"OBJECT_NAME":"HORS 2","OBJECT_ID":"2023-091AG","EPOCH":"2026-03-09T22:11:34.810944","MEAN_MOTION":15.2928008,"ECCENTRICITY":0.00098173,"INCLINATION":97.5195,"RA_OF_ASC_NODE":134.7443,"ARG_OF_PERICENTER":79.3164,"MEAN_ANOMALY":280.9181,"EPHEMERIS_TYPE":0,"CLASSIFICATION_TYPE":"U","NORAD_CAT_ID":57196,"ELEMENT_SET_NO":999,"REV_AT_EPOCH":14934,"BSTAR":0.00059338338,"MEAN_MOTION_DOT":0.00016821,"MEAN_MOTION_DDOT":0},{"OBJECT_NAME":"STARLINK-34192","OBJECT_ID":"2025-101W","EPOCH":"2026-03-09T04:25:18.717888","MEAN_MOTION":15.27565149,"ECCENTRICITY":8.821e-5,"INCLINATION":42.9995,"RA_OF_ASC_NODE":1.1861,"ARG_OF_PERICENTER":275.0953,"MEAN_ANOMALY":84.9798,"EPHEMERIS_TYPE":0,"CLASSIFICATION_TYPE":"U","NORAD_CAT_ID":64014,"ELEMENT_SET_NO":999,"REV_AT_EPOCH":4697,"BSTAR":0.00091102305,"MEAN_MOTION_DOT":0.0002488,"MEAN_MOTION_DDOT":0}]
